CCSDS_OMM_VERS = 2.0
CREATION_DATE  = 
ORIGINATOR     = 

OBJECT_NAME    = STARLINK-35654
OBJECT_ID      = 2025-262AD
CENTER_NAME    = EARTH
REF_FRAME      = TEME
TIME_SYSTEM    = UTC
MEAN_ELEMENT_THEORY = SGP/SGP4

EPOCH          = 2025-12-03T08:00:01.999872
MEAN_MOTION    = 15.60449927
ECCENTRICITY   = .00017335
INCLINATION    = 42.9993
RA_OF_ASC_NODE = 126.0979
ARG_OF_PERICENTER = 268.7057
MEAN_ANOMALY   = 83.7439

EPHEMERIS_TYPE = 0
CLASSIFICATION_TYPE = U
NORAD_CAT_ID   = 66483
ELEMENT_SET_NO = 999
REV_AT_EPOCH   = 412
BSTAR          = -.27830123E-1
MEAN_MOTION_DOT = -.2056969E-1
MEAN_MOTION_DDOT = 0

CCSDS_OMM_VERS = 2.0
CREATION_DATE  = 
ORIGINATOR     = 

OBJECT_NAME    = STARLINK-35371
OBJECT_ID      = 2025-262AE
CENTER_NAME    = EARTH
REF_FRAME      = TEME
TIME_SYSTEM    = UTC
MEAN_ELEMENT_THEORY = SGP/SGP4

EPOCH          = 2025-12-03T08:00:01.999872
MEAN_MOTION    = 15.60448375
ECCENTRICITY   = .00016581
INCLINATION    = 42.9995
RA_OF_ASC_NODE = 126.0944
ARG_OF_PERICENTER = 269.8557
MEAN_ANOMALY   = 84.5121

EPHEMERIS_TYPE = 0
CLASSIFICATION_TYPE = U
NORAD_CAT_ID   = 66484
ELEMENT_SET_NO = 999
REV_AT_EPOCH   = 412
BSTAR          = -.27802726E-1
MEAN_MOTION_DOT = -.2055035E-1
MEAN_MOTION_DDOT = 0

CCSDS_OMM_VERS = 2.0
CREATION_DATE  = 
ORIGINATOR     = 

OBJECT_NAME    = STARLINK-34774
OBJECT_ID      = 2025-263A
CENTER_NAME    = EARTH
REF_FRAME      = TEME
TIME_SYSTEM    = UTC
MEAN_ELEMENT_THEORY = SGP/SGP4

EPOCH          = 2025-12-03T08:00:01.999872
MEAN_MOTION    = 15.72097840
ECCENTRICITY   = .00017249
INCLINATION    = 42.9992
RA_OF_ASC_NODE = 180.6534
ARG_OF_PERICENTER = 275.1863
MEAN_ANOMALY   = 164.6122

EPHEMERIS_TYPE = 0
CLASSIFICATION_TYPE = U
NORAD_CAT_ID   = 66485
ELEMENT_SET_NO = 999
REV_AT_EPOCH   = 412
BSTAR          = -.16640591E-1
MEAN_MOTION_DOT = -.1988954E-1
MEAN_MOTION_DDOT = 0

CCSDS_OMM_VERS = 2.0
CREATION_DATE  = 
ORIGINATOR     = 

OBJECT_NAME    = STARLINK-34844
OBJECT_ID      = 2025-263B
CENTER_NAME    = EARTH
REF_FRAME      = TEME
TIME_SYSTEM    = UTC
MEAN_ELEMENT_THEORY = SGP/SGP4

EPOCH          = 2025-12-03T08:00:01.999872
MEAN_MOTION    = 15.72095403
ECCENTRICITY   = .00016535
INCLINATION    = 42.9993
RA_OF_ASC_NODE = 180.6477
ARG_OF_PERICENTER = 268.5947
MEAN_ANOMALY   = 173.1246

EPHEMERIS_TYPE = 0
CLASSIFICATION_TYPE = U
NORAD_CAT_ID   = 66486
ELEMENT_SET_NO = 999
REV_AT_EPOCH   = 407
BSTAR          = -.16640886E-1
MEAN_MOTION_DOT = -.198874E-1
MEAN_MOTION_DDOT = 0

CCSDS_OMM_VERS = 2.0
CREATION_DATE  = 
ORIGINATOR     = 

OBJECT_NAME    = STARLINK-34733
OBJECT_ID      = 2025-263C
CENTER_NAME    = EARTH
REF_FRAME      = TEME
TIME_SYSTEM    = UTC
MEAN_ELEMENT_THEORY = SGP/SGP4

EPOCH          = 2025-12-03T08:00:01.999872
MEAN_MOTION    = 15.72094082
ECCENTRICITY   = .00016626
INCLINATION    = 42.9994
RA_OF_ASC_NODE = 180.6432
ARG_OF_PERICENTER = 275.4139
MEAN_ANOMALY   = 168.2238

EPHEMERIS_TYPE = 0
CLASSIFICATION_TYPE = U
NORAD_CAT_ID   = 66487
ELEMENT_SET_NO = 999
REV_AT_EPOCH   = 412
BSTAR          = -.16625488E-1
MEAN_MOTION_DOT = -.1987024E-1
MEAN_MOTION_DDOT = 0

CCSDS_OMM_VERS = 2.0
CREATION_DATE  = 
ORIGINATOR     = 

OBJECT_NAME    = STARLINK-35515
OBJECT_ID      = 2025-263D
CENTER_NAME    = EARTH
REF_FRAME      = TEME
TIME_SYSTEM    = UTC
MEAN_ELEMENT_THEORY = SGP/SGP4

EPOCH          = 2025-12-03T08:00:01.999872
MEAN_MOTION    = 15.72097050
ECCENTRICITY   = .00015181
INCLINATION    = 42.9995
RA_OF_ASC_NODE = 180.6381
ARG_OF_PERICENTER = 275.9319
MEAN_ANOMALY   = 169.6191

EPHEMERIS_TYPE = 0
CLASSIFICATION_TYPE = U
NORAD_CAT_ID   = 66488
ELEMENT_SET_NO = 999
REV_AT_EPOCH   = 412
BSTAR          = -.1662651E-1
MEAN_MOTION_DOT = -.1987235E-1
MEAN_MOTION_DDOT = 0

CCSDS_OMM_VERS = 2.0
CREATION_DATE  = 
ORIGINATOR     = 

OBJECT_NAME    = STARLINK-35696
OBJECT_ID      = 2025-263E
CENTER_NAME    = EARTH
REF_FRAME      = TEME
TIME_SYSTEM    = UTC
MEAN_ELEMENT_THEORY = SGP/SGP4

EPOCH          = 2025-12-03T08:00:01.999872
MEAN_MOTION    = 15.72100150
ECCENTRICITY   = .00015882
INCLINATION    = 42.9995
RA_OF_ASC_NODE = 180.6333
ARG_OF_PERICENTER = 267.0496
MEAN_ANOMALY   = 180.4173

EPHEMERIS_TYPE = 0
CLASSIFICATION_TYPE = U
NORAD_CAT_ID   = 66489
ELEMENT_SET_NO = 999
REV_AT_EPOCH   = 412
BSTAR          = -.16680304E-1
MEAN_MOTION_DOT = -.1993198E-1
MEAN_MOTION_DDOT = 0

CCSDS_OMM_VERS = 2.0
CREATION_DATE  = 
ORIGINATOR     = 

OBJECT_NAME    = STARLINK-35693
OBJECT_ID      = 2025-263F
CENTER_NAME    = EARTH
REF_FRAME      = TEME
TIME_SYSTEM    = UTC
MEAN_ELEMENT_THEORY = SGP/SGP4

EPOCH          = 2025-12-03T08:00:01.999872
MEAN_MOTION    = 15.72095809
ECCENTRICITY   = .00016133
INCLINATION    = 42.9995
RA_OF_ASC_NODE = 180.6282
ARG_OF_PERICENTER = 273.2621
MEAN_ANOMALY   = 176.1248

EPHEMERIS_TYPE = 0
CLASSIFICATION_TYPE = U
NORAD_CAT_ID   = 66490
ELEMENT_SET_NO = 999
REV_AT_EPOCH   = 412
BSTAR          = -.16629869E-1
MEAN_MOTION_DOT = -.1987575E-1
MEAN_MOTION_DDOT = 0

CCSDS_OMM_VERS = 2.0
CREATION_DATE  = 
ORIGINATOR     = 

OBJECT_NAME    = STARLINK-35663
OBJECT_ID      = 2025-263G
CENTER_NAME    = EARTH
REF_FRAME      = TEME
TIME_SYSTEM    = UTC
MEAN_ELEMENT_THEORY = SGP/SGP4

EPOCH          = 2025-12-03T08:00:01.999872
MEAN_MOTION    = 15.72097691
ECCENTRICITY   = .00015758
INCLINATION    = 42.9992
RA_OF_ASC_NODE = 180.6189
ARG_OF_PERICENTER = 270.9314
MEAN_ANOMALY   = 182.2890

EPHEMERIS_TYPE = 0
CLASSIFICATION_TYPE = U
NORAD_CAT_ID   = 66491
ELEMENT_SET_NO = 999
REV_AT_EPOCH   = 412
BSTAR          = -.16659875E-1
MEAN_MOTION_DOT = -.1990849E-1
MEAN_MOTION_DDOT = 0

CCSDS_OMM_VERS = 2.0
CREATION_DATE  = 
ORIGINATOR     = 

OBJECT_NAME    = STARLINK-35673
OBJECT_ID      = 2025-263H
CENTER_NAME    = EARTH
REF_FRAME      = TEME
TIME_SYSTEM    = UTC
MEAN_ELEMENT_THEORY = SGP/SGP4

EPOCH          = 2025-12-03T08:00:01.999872
MEAN_MOTION    = 15.72099574
ECCENTRICITY   = .00016587
INCLINATION    = 42.9993
RA_OF_ASC_NODE = 180.6138
ARG_OF_PERICENTER = 272.6344
MEAN_ANOMALY   = 182.5003

EPHEMERIS_TYPE = 0
CLASSIFICATION_TYPE = U
NORAD_CAT_ID   = 66492
ELEMENT_SET_NO = 999
REV_AT_EPOCH   = 412
BSTAR          = -.16666679E-1
MEAN_MOTION_DOT = -.1991778E-1
MEAN_MOTION_DDOT = 0

CCSDS_OMM_VERS = 2.0
CREATION_DATE  = 
ORIGINATOR     = 

OBJECT_NAME    = STARLINK-35597
OBJECT_ID      = 2025-263J
CENTER_NAME    = EARTH
REF_FRAME      = TEME
TIME_SYSTEM    = UTC
MEAN_ELEMENT_THEORY = SGP/SGP4

EPOCH          = 2025-12-03T08:00:01.999872
MEAN_MOTION    = 15.72097203
ECCENTRICITY   = .00016389
INCLINATION    = 42.9993
RA_OF_ASC_NODE = 180.6087
ARG_OF_PERICENTER = 268.7876
MEAN_ANOMALY   = 188.2671

EPHEMERIS_TYPE = 0
CLASSIFICATION_TYPE = U
NORAD_CAT_ID   = 66493
ELEMENT_SET_NO = 999
REV_AT_EPOCH   = 412
BSTAR          = -.16655747E-1
MEAN_MOTION_DOT = -.199043E-1
MEAN_MOTION_DDOT = 0

CCSDS_OMM_VERS = 2.0
CREATION_DATE  = 
ORIGINATOR     = 

OBJECT_NAME    = STARLINK-35689
OBJECT_ID      = 2025-263K
CENTER_NAME    = EARTH
REF_FRAME      = TEME
TIME_SYSTEM    = UTC
MEAN_ELEMENT_THEORY = SGP/SGP4

EPOCH          = 2025-12-03T08:00:01.999872
MEAN_MOTION    = 15.72097086
ECCENTRICITY   = .00017299
INCLINATION    = 42.9992
RA_OF_ASC_NODE = 180.6240
ARG_OF_PERICENTER = 272.3601
MEAN_ANOMALY   = 178.9416

EPHEMERIS_TYPE = 0
CLASSIFICATION_TYPE = U
NORAD_CAT_ID   = 66494
ELEMENT_SET_NO = 999
REV_AT_EPOCH   = 412
BSTAR          = -.16636438E-1
MEAN_MOTION_DOT = -.1988463E-1
MEAN_MOTION_DDOT = 0

CCSDS_OMM_VERS = 2.0
CREATION_DATE  = 
ORIGINATOR     = 

OBJECT_NAME    = STARLINK-35832
OBJECT_ID      = 2025-263L
CENTER_NAME    = EARTH
REF_FRAME      = TEME
TIME_SYSTEM    = UTC
MEAN_ELEMENT_THEORY = SGP/SGP4

EPOCH          = 2025-12-03T08:00:01.999872
MEAN_MOTION    = 15.72089394
ECCENTRICITY   = .00016255
INCLINATION    = 42.9993
RA_OF_ASC_NODE = 180.6037
ARG_OF_PERICENTER = 272.7712
MEAN_ANOMALY   = 186.2065

EPHEMERIS_TYPE = 0
CLASSIFICATION_TYPE = U
NORAD_CAT_ID   = 66495
ELEMENT_SET_NO = 999
REV_AT_EPOCH   = 412
BSTAR          = -.16581684E-1
MEAN_MOTION_DOT = -.1982021E-1
MEAN_MOTION_DDOT = 0

CCSDS_OMM_VERS = 2.0
CREATION_DATE  = 
ORIGINATOR     = 

OBJECT_NAME    = STARLINK-35909
OBJECT_ID      = 2025-263M
CENTER_NAME    = EARTH
REF_FRAME      = TEME
TIME_SYSTEM    = UTC
MEAN_ELEMENT_THEORY = SGP/SGP4

EPOCH          = 2025-12-03T08:00:01.999872
MEAN_MOTION    = 15.72097439
ECCENTRICITY   = .00016897
INCLINATION    = 42.9993
RA_OF_ASC_NODE = 180.5986
ARG_OF_PERICENTER = 274.3133
MEAN_ANOMALY   = 186.5743

EPHEMERIS_TYPE = 0
CLASSIFICATION_TYPE = U
NORAD_CAT_ID   = 66496
ELEMENT_SET_NO = 999
REV_AT_EPOCH   = 412
BSTAR          = -.16644322E-1
MEAN_MOTION_DOT = -.1989286E-1
MEAN_MOTION_DDOT = 0

CCSDS_OMM_VERS = 2.0
CREATION_DATE  = 
ORIGINATOR     = 

OBJECT_NAME    = STARLINK-35899
OBJECT_ID      = 2025-263N
CENTER_NAME    = EARTH
REF_FRAME      = TEME
TIME_SYSTEM    = UTC
MEAN_ELEMENT_THEORY = SGP/SGP4

EPOCH          = 2025-12-03T08:00:01.999872
MEAN_MOTION    = 15.72097273
ECCENTRICITY   = .00016148
INCLINATION    = 42.9991
RA_OF_ASC_NODE = 180.5939
ARG_OF_PERICENTER = 276.6988
MEAN_ANOMALY   = 186.1051

EPHEMERIS_TYPE = 0
CLASSIFICATION_TYPE = U
NORAD_CAT_ID   = 66497
ELEMENT_SET_NO = 999
REV_AT_EPOCH   = 412
BSTAR          = -.1663923E-1
MEAN_MOTION_DOT = -.1988674E-1
MEAN_MOTION_DDOT = 0

